{
  "type": "FeatureCollection",
  "features": [
    {
      "type": "Feature",
      "properties": {
        "depth": 4.2,
        "note": "架空の値です"
      },
      "geometry": {
        "type": "Polygon",
        "coordinates": [
          [
            [
              135.485,
              34.69
            ],
            [
              135.49,
              34.69
            ],
            [
              135.49,
              34.69233333333333
            ],
            [
              135.485,
              34.69233333333333
            ],
            [
              135.485,
              34.69
            ]
          ]
        ]
      }
    },
    {
      "type": "Feature",
      "properties": {
        "depth": 2.1,
        "note": "架空の値です"
      },
      "geometry": {
        "type": "Polygon",
        "coordinates": [
          [
            [
              135.485,
              34.69233333333333
            ],
            [
              135.49,
              34.69233333333333
            ],
            [
              135.49,
              34.69466666666667
            ],
            [
              135.485,
              34.69466666666667
            ],
            [
              135.485,
              34.69233333333333
            ]
          ]
        ]
      }
    },
    {
      "type": "Feature",
      "properties": {
        "depth": 0.8,
        "note": "架空の値です"
      },
      "geometry": {
        "type": "Polygon",
        "coordinates": [
          [
            [
              135.485,
              34.69466666666667
            ],
            [
              135.49,
              34.69466666666667
            ],
            [
              135.49,
              34.697
            ],
            [
              135.485,
              34.697
            ],
            [
              135.485,
              34.69466666666667
            ]
          ]
        ]
      }
    },
    {
      "type": "Feature",
      "properties": {
        "depth": 4.5,
        "note": "架空の値です"
      },
      "geometry": {
        "type": "Polygon",
        "coordinates": [
          [
            [
              135.49,
              34.69
            ],
            [
              135.495,
              34.69
            ],
            [
              135.495,
              34.69233333333333
            ],
            [
              135.49,
              34.69233333333333
            ],
            [
              135.49,
              34.69
            ]
          ]
        ]
      }
    },
    {
      "type": "Feature",
      "properties": {
        "depth": 2.4,
        "note": "架空の値です"
      },
      "geometry": {
        "type": "Polygon",
        "coordinates": [
          [
            [
              135.49,
              34.69233333333333
            ],
            [
              135.495,
              34.69233333333333
            ],
            [
              135.495,
              34.69466666666667
            ],
            [
              135.49,
              34.69466666666667
            ],
            [
              135.49,
              34.69233333333333
            ]
          ]
        ]
      }
    },
    {
      "type": "Feature",
      "properties": {
        "depth": 1.1,
        "note": "架空の値です"
      },
      "geometry": {
        "type": "Polygon",
        "coordinates": [
          [
            [
              135.49,
              34.69466666666667
            ],
            [
              135.495,
              34.69466666666667
            ],
            [
              135.495,
              34.697
            ],
            [
              135.49,
              34.697
            ],
            [
              135.49,
              34.69466666666667
            ]
          ]
        ]
      }
    },
    {
      "type": "Feature",
      "properties": {
        "depth": 4.2,
        "note": "架空の値です"
      },
      "geometry": {
        "type": "Polygon",
        "coordinates": [
          [
            [
              135.495,
              34.69
            ],
            [
              135.5,
              34.69
            ],
            [
              135.5,
              34.69233333333333
            ],
            [
              135.495,
              34.69233333333333
            ],
            [
              135.495,
              34.69
            ]
          ]
        ]
      }
    },
    {
      "type": "Feature",
      "properties": {
        "depth": 2.1,
        "note": "架空の値です"
      },
      "geometry": {
        "type": "Polygon",
        "coordinates": [
          [
            [
              135.495,
              34.69233333333333
            ],
            [
              135.5,
              34.69233333333333
            ],
            [
              135.5,
              34.69466666666667
            ],
            [
              135.495,
              34.69466666666667
            ],
            [
              135.495,
              34.69233333333333
            ]
          ]
        ]
      }
    },
    {
      "type": "Feature",
      "properties": {
        "depth": 0.8,
        "note": "架空の値です"
      },
      "geometry": {
        "type": "Polygon",
        "coordinates": [
          [
            [
              135.495,
              34.69466666666667
            ],
            [
              135.5,
              34.69466666666667
            ],
            [
              135.5,
              34.697
            ],
            [
              135.495,
              34.697
            ],
            [
              135.495,
              34.69466666666667
            ]
          ]
        ]
      }
    },
    {
      "type": "Feature",
      "properties": {
        "depth": 4.5,
        "note": "架空の値です"
      },
      "geometry": {
        "type": "Polygon",
        "coordinates": [
          [
            [
              135.5,
              34.69
            ],
            [
              135.505,
              34.69
            ],
            [
              135.505,
              34.69233333333333
            ],
            [
              135.5,
              34.69233333333333
            ],
            [
              135.5,
              34.69
            ]
          ]
        ]
      }
    },
    {
      "type": "Feature",
      "properties": {
        "depth": 2.4,
        "note": "架空の値です"
      },
      "geometry": {
        "type": "Polygon",
        "coordinates": [
          [
            [
              135.5,
              34.69233333333333
            ],
            [
              135.505,
              34.69233333333333
            ],
            [
              135.505,
              34.69466666666667
            ],
            [
              135.5,
              34.69466666666667
            ],
            [
              135.5,
              34.69233333333333
            ]
          ]
        ]
      }
    },
    {
      "type": "Feature",
      "properties": {
        "depth": 1.1,
        "note": "架空の値です"
      },
      "geometry": {
        "type": "Polygon",
        "coordinates": [
          [
            [
              135.5,
              34.69466666666667
            ],
            [
              135.505,
              34.69466666666667
            ],
            [
              135.505,
              34.697
            ],
            [
              135.5,
              34.697
            ],
            [
              135.5,
              34.69466666666667
            ]
          ]
        ]
      }
    },
    {
      "type": "Feature",
      "properties": {
        "depth": 4.2,
        "note": "架空の値です"
      },
      "geometry": {
        "type": "Polygon",
        "coordinates": [
          [
            [
              135.505,
              34.69
            ],
            [
              135.51,
              34.69
            ],
            [
              135.51,
              34.69233333333333
            ],
            [
              135.505,
              34.69233333333333
            ],
            [
              135.505,
              34.69
            ]
          ]
        ]
      }
    },
    {
      "type": "Feature",
      "properties": {
        "depth": 2.1,
        "note": "架空の値です"
      },
      "geometry": {
        "type": "Polygon",
        "coordinates": [
          [
            [
              135.505,
              34.69233333333333
            ],
            [
              135.51,
              34.69233333333333
            ],
            [
              135.51,
              34.69466666666667
            ],
            [
              135.505,
              34.69466666666667
            ],
            [
              135.505,
              34.69233333333333
            ]
          ]
        ]
      }
    },
    {
      "type": "Feature",
      "properties": {
        "depth": 0.8,
        "note": "架空の値です"
      },
      "geometry": {
        "type": "Polygon",
        "coordinates": [
          [
            [
              135.505,
              34.69466666666667
            ],
            [
              135.51,
              34.69466666666667
            ],
            [
              135.51,
              34.697
            ],
            [
              135.505,
              34.697
            ],
            [
              135.505,
              34.69466666666667
            ]
          ]
        ]
      }
    },
    {
      "type": "Feature",
      "properties": {
        "depth": 4.5,
        "note": "架空の値です"
      },
      "geometry": {
        "type": "Polygon",
        "coordinates": [
          [
            [
              135.51,
              34.69
            ],
            [
              135.515,
              34.69
            ],
            [
              135.515,
              34.69233333333333
            ],
            [
              135.51,
              34.69233333333333
            ],
            [
              135.51,
              34.69
            ]
          ]
        ]
      }
    },
    {
      "type": "Feature",
      "properties": {
        "depth": 2.4,
        "note": "架空の値です"
      },
      "geometry": {
        "type": "Polygon",
        "coordinates": [
          [
            [
              135.51,
              34.69233333333333
            ],
            [
              135.515,
              34.69233333333333
            ],
            [
              135.515,
              34.69466666666667
            ],
            [
              135.51,
              34.69466666666667
            ],
            [
              135.51,
              34.69233333333333
            ]
          ]
        ]
      }
    },
    {
      "type": "Feature",
      "properties": {
        "depth": 1.1,
        "note": "架空の値です"
      },
      "geometry": {
        "type": "Polygon",
        "coordinates": [
          [
            [
              135.51,
              34.69466666666667
            ],
            [
              135.515,
              34.69466666666667
            ],
            [
              135.515,
              34.697
            ],
            [
              135.51,
              34.697
            ],
            [
              135.51,
              34.69466666666667
            ]
          ]
        ]
      }
    }
  ]
}
