{
  "type": "FeatureCollection",
  "features": [
    {
      "type": "Feature",
      "properties": {
        "name": "サンプル経路（御堂筋 → 曽根崎通）"
      },
      "geometry": {
        "type": "LineString",
        "coordinates": [
          [
            135.49848,
            34.701802
          ],
          [
            135.498708,
            34.701663
          ],
          [
            135.498912,
            34.701529
          ],
          [
            135.499232,
            34.701282
          ],
          [
            135.49932,
            34.701209
          ],
          [
            135.499419,
            34.701112
          ],
          [
            135.499494,
            34.700997
          ],
          [
            135.499612,
            34.700792
          ],
          [
            135.500101,
            34.699529
          ],
          [
            135.500591,
            34.698311
          ],
          [
            135.501436,
            34.698243
          ],
          [
            135.50189,
            34.698214
          ],
          [
            135.502123,
            34.698199
          ],
          [
            135.50249,
            34.69817
          ],
          [
            135.503515,
            34.698117
          ],
          [
            135.50414,
            34.698095
          ],
          [
            135.505403,
            34.69802
          ],
          [
            135.505543,
            34.697989
          ]
        ]
      }
    },
    {
      "type": "Feature",
      "properties": {
        "instruction": "出発点。広い通りの歩道を、街路樹に沿って南へ 400 m ほどまっすぐ進みます",
        "image": "./data/photos/route-start.jpg"
      },
      "geometry": {
        "type": "Point",
        "coordinates": [
          135.49848,
          34.701802
        ]
      }
    },
    {
      "type": "Feature",
      "properties": {
        "instruction": "横断歩道の先、角のビルの手前を左へ。歩行者用信号を渡ってすぐです",
        "image": "./data/photos/route-corner.jpg"
      },
      "geometry": {
        "type": "Point",
        "coordinates": [
          135.500591,
          34.698311
        ]
      }
    },
    {
      "type": "Feature",
      "properties": {
        "instruction": "左手の、植え込みのあるガラス扉が目的地です",
        "image": "./data/photos/route-goal.jpg"
      },
      "geometry": {
        "type": "Point",
        "coordinates": [
          135.505543,
          34.697989
        ]
      }
    }
  ]
}
